{"version": 0.6, "generator": "Overpass API 0.7.62.8 e802775f", "osm3s": {"timestamp_osm_base": "2025-08-31T02:42:42Z", "copyright": "The data included in this document is from www.openstreetmap.org. The data is made available under ODbL."}, "elements": [{"type": "node", "id": 248229933, "lat": -37.797473, "lon": 144.972691, "tags": {"addr:housenumber": "54", "addr:street": "Elgin Street", "amenity": "doctors", "healthcare": "doctor", "name": "Elgin Medical Centre", "opening_hours": "Mo-Tu 9:00-12:00; Th 9:00-12:00", "phone": "+61 3 9347 2788"}}, {"type": "node", "id": 377215589, "lat": -37.7979111, "lon": 144.9706637, "tags": {"addr:housenumber": "88", "addr:street": "Rathdowne Street", "amenity": "doctors", "healthcare": "doctor", "name": "Carlton Family Medical", "opening_hours": "Mo 08:30-18:00; Tu,Th 08:30-17:30; We,Fr 08:30-17:00; Sa 09:00-13:00", "phone": "+61 3 8330 3900", "website": "https://www.carltonfamilymedical.com.au/"}}, {"type": "node", "id": 612769757, "lat": -37.816194, "lon": 144.9569723, "tags": {"amenity": "doctors", "healthcare": "doctor", "name": "Era Health"}}, {"type": "node", "id": 703004375, "lat": -37.797858, "lon": 144.968289, "tags": {"addr:floor": "1", "addr:housenumber": "380", "addr:street": "Lygon Street", "amenity": "doctors", "healthcare": "doctor", "name": "Metropolitan Medical Centres Carlton", "opening_hours": "Mo-Fr 9:00-17:00; Sa 9:00-14:00", "phone": "+61 3 9347 7711"}}, {"type": "node", "id": 1072625650, "lat": -37.7945321, "lon": 144.929747, "tags": {"amenity": "doctors", "healthcare": "doctor", "healthcare:speciality": "osteopathy;physiotherapy;massage_therapy", "name": "Connect Health + Movement"}}, {"type": "node", "id": 1080052561, "lat": -37.8097206, "lon": 144.970302, "tags": {"addr:housenumber": "68", "addr:street": "Lonsdale Street", "amenity": "doctors", "contact:facebook": "https://www.facebook.com/mclaser68/", "email": "mclaser68@gmail.com", "healthcare": "doctor", "healthcare:speciality": "general;dermatology", "name": "No 68 Medical Centre | Melbourne Clinical Laser", "opening_hours": "Mo-Fr 10:00-17:00", "operator": "Dr. Feng Yang", "phone:AU": "1300 757 816", "website": "https://www.melbourneclinicallaser.com.au/"}}, {"type": "node", "id": 2144922897, "lat": -37.835551, "lon": 144.975633, "tags": {"addr:housenumber": "391", "addr:street": "St Kilda Road", "amenity": "doctors", "healthcare": "doctor", "name": "St Kilda Road Medical Centre", "phone": "+61 3 9869 2000", "website": "http://www.skrmc.com.au/"}}, {"type": "node", "id": 2286233334, "lat": -37.804272, "lon": 144.958148, "tags": {"amenity": "doctors", "healthcare": "doctor", "name": "Melbourne North Medical Clinic"}}, {"type": "node", "id": 3306865466, "lat": -37.8084222, "lon": 144.9515599, "tags": {"addr:housenumber": "491\u2013495", "addr:street": "King Street", "addr:suburb": "West Melbourne", "amenity": "doctors", "healthcare": "doctor", "name": "Premier Health Partners"}}, {"type": "node", "id": 3946730971, "lat": -37.8207394, "lon": 144.9443377, "tags": {"addr:housenumber": "850", "addr:postcode": "3008", "addr:street": "Collins Street", "addr:suburb": "Docklands", "amenity": "doctors", "healthcare": "doctor", "name": "Victoria Harbour Medical Centre", "phone": "+61 3 9629 1414", "source": "Mapillary", "website": "https://www.victoriaharbourmedicalcentre.com.au/"}}, {"type": "node", "id": 4365827751, "lat": -37.7945021, "lon": 144.9496536, "tags": {"addr:housenumber": "20", "addr:postcode": "3052", "addr:state": "VIC", "addr:street": "Flemington Road", "addr:suburb": "Parkville", "addr:unit": "2", "amenity": "doctors", "email": "reception@drpeterjurcevic.com.au", "healthcare": "doctor", "healthcare:speciality": "gynaecology", "name": "Private Consulting Rooms", "opening_hours": "Mo-Fr 09:00-17:00", "operator": "Dr Peter Jurcevic", "website": "https://www.drpeterjurcevic.com.au/"}}, {"type": "node", "id": 7330907855, "lat": -37.7934881, "lon": 144.9467289, "tags": {"addr:housenumber": "243-251", "addr:postcode": "3051", "addr:state": "VIC", "addr:street": "Flemington Road", "addr:suburb": "North Melbourne", "amenity": "doctors", "check_date:opening_hours": "2024-07-27", "healthcare": "doctor", "healthcare:speciality": "general", "name": "Royal Park Medical", "opening_hours": "Mo-Fr 08:30-18:00; Sa 08:30-12:30", "website": "https://royalparkmedical.com.au/"}}, {"type": "node", "id": 7391473715, "lat": -37.8028099, "lon": 144.9489662, "tags": {"addr:housenumber": "550", "addr:street": "Queensberry Street", "amenity": "doctors", "healthcare": "doctor", "name": "Allergy Doctors"}}, {"type": "node", "id": 7391473716, "lat": -37.8028312, "lon": 144.9489633, "tags": {"addr:street": "Queensberry Street", "amenity": "doctors", "healthcare": "doctor", "healthcare:speciality": "oral_surgery"}}, {"type": "node", "id": 9673222893, "lat": -37.794711, "lon": 144.9304149}, {"type": "node", "id": 9673222894, "lat": -37.794556, "lon": 144.9303897}, {"type": "node", "id": 9673222897, "lat": -37.7947184, "lon": 144.9303585}, {"type": "node", "id": 9673222898, "lat": -37.7945467, "lon": 144.9303173}, {"type": "node", "id": 10230550878, "lat": -37.7929252, "lon": 144.9460177}, {"type": "node", "id": 10230550879, "lat": -37.7929321, "lon": 144.9460087}, {"type": "node", "id": 10230550880, "lat": -37.7929702, "lon": 144.9459021}, {"type": "node", "id": 10230550881, "lat": -37.7929806, "lon": 144.9459149}, {"type": "node", "id": 10230550882, "lat": -37.7930559, "lon": 144.9458167}, {"type": "node", "id": 10230550883, "lat": -37.7929026, "lon": 144.94599}, {"type": "node", "id": 10230550884, "lat": -37.7929827, "lon": 144.9460709}, {"type": "node", "id": 10230550885, "lat": -37.7931187, "lon": 144.9458939}, {"type": "node", "id": 11242815538, "lat": -37.807462, "lon": 144.9678579, "tags": {"amenity": "doctors", "healthcare": "doctor", "healthcare:speciality": "radiology", "name": "Breast Imaging Victoria", "opening_hours": "Mo-Fr 08:00-16:00", "phone": "+61 3 9419 6766", "website": "https://www.breastscreen.org.au/"}}, {"type": "node", "id": 11885478031, "lat": -37.7827543, "lon": 144.9155083, "tags": {"addr:housenumber": "320", "addr:postcode": "3031", "addr:state": "VIC", "addr:street": "Epsom Road", "addr:suburb": "Flemington", "addr:unit": "1", "amenity": "doctors", "healthcare": "doctor", "healthcare:speciality": "general", "opening_hours": "Mo-Fr 08:00-19:00", "operator": "Guardian Medical Center", "phone": "+61 3 9372 3600", "website": "https://www.guardianmedical.com.au/flemington"}}, {"type": "node", "id": 12213148419, "lat": -37.8024486, "lon": 144.9458447, "tags": {"amenity": "doctors", "healthcare": "doctor", "healthcare:speciality": "neurosurgery", "name": "Adroit Neurosurgery"}}, {"type": "node", "id": 13011116518, "lat": -37.804064, "lon": 144.9636479, "tags": {"addr:housenumber": "538-540", "addr:postcode": "3053", "addr:street": "Swanston Street", "addr:suburb": "Carlton", "amenity": "doctors", "building": "yes", "email": "admin@primecare.au", "healthcare": "doctor", "name": "PrimeCare Medical", "opening_hours": "Mo-Sa 09:30-17:30", "phone": "+61 3 8820 1788", "website": "https://primecare.au/"}}, {"type": "way", "id": 1052561533, "nodes": [9673222898, 9673222894, 9673222893, 9673222897, 9673222898], "tags": {"addr:housenumber": "475", "addr:street": "Macaulay Road", "amenity": "doctors", "building": "retail", "building:levels": "2", "check_date:opening_hours": "2025-01-20", "healthcare": "doctor", "healthcare:speciality": "psychology;general;physiotherapy", "name": "Kensington Healthcare", "opening_hours": "Sa 09:00-12:00; Su off; Mo-Fr 08:30-17:00; PH off", "phone": "+61 3 9376 2245", "website": "http://www.kensingtonhealthcare.com.au/", "wheelchair": "yes"}}, {"type": "way", "id": 1118594381, "nodes": [10230550885, 10230550882, 10230550881, 10230550880, 10230550883, 10230550878, 10230550879, 10230550884, 10230550885], "tags": {"amenity": "doctors", "building": "yes", "healthcare": "doctor", "healthcare:speciality": "radiology", "name": "Vision Radiology"}}]}