{"version": 0.6, "generator": "Overpass API 0.7.62.8 e802775f", "osm3s": {"timestamp_osm_base": "2025-08-31T03:04:26Z", "copyright": "The data included in this document is from www.openstreetmap.org. The data is made available under ODbL."}, "elements": [{"type": "node", "id": 245537989, "lat": -37.8090505, "lon": 144.966191}, {"type": "node", "id": 245537990, "lat": -37.8098491, "lon": 144.9665549}, {"type": "node", "id": 245809009, "lat": -37.7979652, "lon": 144.9591577}, {"type": "node", "id": 245809011, "lat": -37.7987551, "lon": 144.9595134}, {"type": "node", "id": 245809012, "lat": -37.7987224, "lon": 144.9590969}, {"type": "node", "id": 257505348, "lat": -37.7992661, "lon": 144.9631025}, {"type": "node", "id": 257505349, "lat": -37.7992106, "lon": 144.9625808}, {"type": "node", "id": 257505350, "lat": -37.7994614, "lon": 144.962538}, {"type": "node", "id": 291209938, "lat": -37.8081589, "lon": 144.9639444, "tags": {"amenity": "library", "designation": "Swanston", "name": "RMIT Swanston Library"}}, {"type": "node", "id": 291210350, "lat": -37.8059656, "lon": 144.9640939, "tags": {"amenity": "library", "designation": "Carlton Library", "name": "RMIT Carlton Library"}}, {"type": "node", "id": 338857834, "lat": -37.8169458, "lon": 144.9659025, "tags": {"addr:housenumber": "253", "addr:street": "Flinders Lane", "amenity": "library", "name": "City Library", "opening_hours": "Mo-Th 08:00-20:00; Fr 08:00-18:00; Sa 10:00-17:00; Su 12:00-17:00", "phone": "+61 3 9658 9500", "website": "https://www.melbourne.vic.gov.au/", "wheelchair": "yes"}}, {"type": "node", "id": 367779718, "lat": -37.8245882, "lon": 144.9692009, "tags": {"air_conditioning": "yes", "alt_name": "VCA Library", "amenity": "library", "check_date": "2023-03-08", "internet_access": "wlan", "internet_access:ssid": "Eduroam & Uniwireless", "name": "Southbank Library", "operator": "University of Melbourne", "operator:type": "university", "ref:isil": "AU-VU", "website": "https://library.unimelb.edu.au/southbank-library"}}, {"type": "node", "id": 609088563, "lat": -37.8098924, "lon": 144.9664029}, {"type": "node", "id": 609088565, "lat": -37.8098688, "lon": 144.9663921}, {"type": "node", "id": 609088568, "lat": -37.810353, "lon": 144.9647578}, {"type": "node", "id": 609088570, "lat": -37.8102432, "lon": 144.9647078}, {"type": "node", "id": 609088573, "lat": -37.810229, "lon": 144.9647576}, {"type": "node", "id": 609088575, "lat": -37.8100489, "lon": 144.9646753}, {"type": "node", "id": 609088577, "lat": -37.8100592, "lon": 144.9646391}, {"type": "node", "id": 609088580, "lat": -37.8098724, "lon": 144.9645539}, {"type": "node", "id": 609088583, "lat": -37.8098611, "lon": 144.9645934}, {"type": "node", "id": 609088586, "lat": -37.8096776, "lon": 144.9645097}, {"type": "node", "id": 609088588, "lat": -37.8096901, "lon": 144.9644657}, {"type": "node", "id": 609088591, "lat": -37.8095924, "lon": 144.9644211}, {"type": "node", "id": 609088593, "lat": -37.8095001, "lon": 144.9647452}, {"type": "node", "id": 609088595, "lat": -37.8094744, "lon": 144.9647367}, {"type": "node", "id": 609088597, "lat": -37.8093153, "lon": 144.9652821}, {"type": "node", "id": 609088600, "lat": -37.8093351, "lon": 144.9652903}, {"type": "node", "id": 609088602, "lat": -37.8093196, "lon": 144.9653449}, {"type": "node", "id": 609088604, "lat": -37.8092992, "lon": 144.9653388}, {"type": "node", "id": 1877451237, "lat": -37.8011727, "lon": 144.9593581, "tags": {"access": "permissive", "addr:housenumber": "111", "addr:postcode": "3053", "addr:state": "VIC", "addr:street": "Barry Street", "addr:suburb": "Carlton", "air_conditioning": "yes", "alt_name": "Business, Economics and Education Library", "amenity": "library", "books": "academic", "check_date": "2024-03-07", "description": "Economics & Commerce Collections Education Collections", "internet_access": "wlan", "internet_access:fee": "no", "internet_access:ssid": "Eduroam & Uniwireless", "name": "Giblin Eunson Library", "operator": "University of Melbourne", "operator:type": "university", "ref:isil": "AU-VU", "source": "local knowledge", "website": "https://library.unimelb.edu.au/", "wheelchair": "yes"}}, {"type": "node", "id": 1879233132, "lat": -37.7987698, "lon": 144.9594223}, {"type": "node", "id": 1879233134, "lat": -37.7987674, "lon": 144.9593884}, {"type": "node", "id": 2240626124, "lat": -37.8100163, "lon": 144.9658743}, {"type": "node", "id": 2240626126, "lat": -37.8100382, "lon": 144.9658844}, {"type": "node", "id": 2240626127, "lat": -37.810171, "lon": 144.9653348}, {"type": "node", "id": 2240626129, "lat": -37.8101921, "lon": 144.9653444}, {"type": "node", "id": 2240626131, "lat": -37.8103024, "lon": 144.9648735}, {"type": "node", "id": 2240626133, "lat": -37.810318, "lon": 144.9648807}, {"type": "node", "id": 2324373103, "lat": -37.8152038, "lon": 144.9864744}, {"type": "node", "id": 2324373105, "lat": -37.8151415, "lon": 144.986484}, {"type": "node", "id": 2324373106, "lat": -37.8150928, "lon": 144.9864986}, {"type": "node", "id": 2324373108, "lat": -37.814979, "lon": 144.9865304}, {"type": "node", "id": 2324373109, "lat": -37.8150237, "lon": 144.9865237}, {"type": "node", "id": 2324373111, "lat": -37.8149268, "lon": 144.9865393}, {"type": "node", "id": 2324373113, "lat": -37.8150939, "lon": 144.9865055}, {"type": "node", "id": 2324373114, "lat": -37.814975, "lon": 144.9865167}, {"type": "node", "id": 2324373116, "lat": -37.8150216, "lon": 144.9865104}, {"type": "node", "id": 2324373117, "lat": -37.8151445, "lon": 144.9864966}, {"type": "node", "id": 2341544335, "lat": -37.8255777, "lon": 144.9612198, "tags": {"addr:housenumber": "207", "addr:street": "City Road", "amenity": "library", "name": "Southbank Library at Boyd", "opening_hours": "Mo-Th 10:00-19:00; Fr 13:00-18:00; Sa 10:00-16:00; Su 14:00-17:00", "phone": "+61 3 9658 8300", "website": "https://www.melbourne.vic.gov.au/community/libraries/locations/Pages/locations.aspx"}}, {"type": "node", "id": 2463477338, "lat": -37.798337, "lon": 144.959559, "tags": {"entrance": "main"}}, {"type": "node", "id": 2682938222, "lat": -37.7979958, "lon": 144.959598}, {"type": "node", "id": 2975214881, "lat": -37.7995169, "lon": 144.9630597}, {"type": "node", "id": 2975246296, "lat": -37.798227, "lon": 144.9595722, "tags": {"entrance": "yes"}}, {"type": "node", "id": 4120677316, "lat": -37.8099666, "lon": 144.9645969, "tags": {"entrance": "yes"}}, {"type": "node", "id": 4350551011, "lat": -37.7993277, "lon": 144.963092}, {"type": "node", "id": 4740634803, "lat": -37.803565, "lon": 144.949759, "tags": {"addr:country": "AU", "addr:housenumber": "66-68", "addr:postcode": "3051", "addr:state": "VIC", "addr:street": "Errol Street", "addr:suburb": "North Melbourne", "amenity": "library", "changing_table": "yes", "changing_table:fee": "no", "changing_table:location": "unisex_toilet;wheelchair_toilet", "email": "library@melbourne.vic.gov.au", "internet_access": "wlan", "name": "North Melbourne Library", "opening_hours": "Mo-Th 10:00-19:00; Fr 13:00-18:00; Sa 10:00-16:00; Su 12:00-16:00", "operator": "City of Melbourne", "operator:type": "government", "phone": "+61 3 9658 9700", "source": "Vicmap Address", "toilets": "yes", "toilets:access": "yes", "toilets:wheelchair": "designated", "website": "https://www.melbourne.vic.gov.au/community/libraries/locations/Pages/locations.aspx", "wheelchair": "yes"}}, {"type": "node", "id": 5058108332, "lat": -37.8234453, "lon": 144.9687151}, {"type": "node", "id": 5058108334, "lat": -37.8235161, "lon": 144.968761}, {"type": "node", "id": 5058108349, "lat": -37.8234532, "lon": 144.9687131}, {"type": "node", "id": 6167266647, "lat": -37.8095522, "lon": 144.9645624, "tags": {"entrance": "yes"}}, {"type": "node", "id": 6273107872, "lat": -37.7929792, "lon": 144.9617348, "tags": {"amenity": "library", "name": "Dalton McCaughey Library"}}, {"type": "node", "id": 6544142230, "lat": -37.7982198, "lon": 144.9591294}, {"type": "node", "id": 6544142231, "lat": -37.7982214, "lon": 144.9591526}, {"type": "node", "id": 6680797631, "lat": -37.8200502, "lon": 144.9407574, "tags": {"entrance": "yes"}}, {"type": "node", "id": 6680797700, "lat": -37.8201572, "lon": 144.9403871, "tags": {"man_made": "gasometer"}}, {"type": "node", "id": 6680797708, "lat": -37.8201224, "lon": 144.9405076, "tags": {"entrance": "yes", "name": "After Hours Entrance"}}, {"type": "node", "id": 6681538750, "lat": -37.8200137, "lon": 144.9408837}, {"type": "node", "id": 6684334228, "lat": -37.8199895, "lon": 144.9408725}, {"type": "node", "id": 6696357545, "lat": -37.8094703, "lon": 144.9663823, "tags": {"entrance": "yes"}}, {"type": "node", "id": 10709142784, "lat": -37.8023777, "lon": 144.9597833, "tags": {"access": "permissive", "addr:housenumber": "185", "addr:postcode": "3053", "addr:state": "VIC", "addr:street": "Pelham Street", "addr:suburb": "Carlton", "air_conditioning": "yes", "amenity": "library", "check_date": "2023-03-04", "internet_access": "wlan", "internet_access:ssid": "Eduroam & Uniwireless", "name": "Law Library", "operator": "University of Melbourne", "operator:type": "university", "ref:isil": "AU-VU", "website": "https://library.unimelb.edu.au/", "wheelchair": "yes"}}, {"type": "node", "id": 10720135585, "lat": -37.7973892, "lon": 144.9629108, "tags": {"addr:street": "Masson Road", "air_conditioning": "yes", "amenity": "library", "check_date": "2023-03-08", "internet_access": "wlan", "name": "Architecture, Building & Planning Library", "operator": "University of Melbourne", "operator:type": "university", "ref:isil": "AU-VU", "wheelchair": "yes"}}, {"type": "node", "id": 10727218336, "lat": -37.7987704, "lon": 144.9594315}, {"type": "node", "id": 10727218385, "lat": -37.7987586, "lon": 144.9592613}, {"type": "node", "id": 10727218386, "lat": -37.7987496, "lon": 144.9594338}, {"type": "node", "id": 10727218387, "lat": -37.798734, "lon": 144.9592641}, {"type": "node", "id": 10733946319, "lat": -37.7993754, "lon": 144.9625527}, {"type": "node", "id": 10733946320, "lat": -37.7994312, "lon": 144.9630743}, {"type": "node", "id": 10754882398, "lat": -37.7994739, "lon": 144.9630671}, {"type": "node", "id": 10754888719, "lat": -37.7993019, "lon": 144.9630964}, {"type": "node", "id": 11142699769, "lat": -37.7992129, "lon": 144.9626024}, {"type": "node", "id": 11357475523, "lat": -37.807721, "lon": 144.9584163, "tags": {"addr:housenumber": "141", "addr:postcode": "3000", "addr:state": "VIC", "addr:street": "Therry Street", "addr:suburb": "Melbourne", "air_conditioning": "yes", "amenity": "library", "baby_feeding": "room", "internet_access": "wlan", "internet_access:fee": "no", "name": "Narrm Ngarrgu", "operator": "Melbourne City Council", "operator:type": "government", "toilets": "yes", "toilets:wheelchair": "yes", "wheelchair": "yes"}}, {"type": "node", "id": 11414503276, "lat": -37.815156, "lon": 144.9862659}, {"type": "node", "id": 11414503277, "lat": -37.8150306, "lon": 144.9863246}, {"type": "node", "id": 11414503278, "lat": -37.8151736, "lon": 144.9863449}, {"type": "node", "id": 11414503279, "lat": -37.8149065, "lon": 144.9864699}, {"type": "node", "id": 11414503280, "lat": -37.8150243, "lon": 144.9862632}, {"type": "node", "id": 11414503281, "lat": -37.8151535, "lon": 144.986242}, {"type": "node", "id": 11414503282, "lat": -37.8151979, "lon": 144.9863335}, {"type": "node", "id": 11414503283, "lat": -37.8148999, "lon": 144.986473}, {"type": "node", "id": 11414503284, "lat": -37.8148775, "lon": 144.9863962}, {"type": "node", "id": 11414503285, "lat": -37.8151755, "lon": 144.9862568}, {"type": "node", "id": 11580469614, "lat": -37.8231849, "lon": 144.9676753}, {"type": "node", "id": 11580469619, "lat": -37.8229353, "lon": 144.9684605}, {"type": "node", "id": 11580469620, "lat": -37.8233078, "lon": 144.9680634}, {"type": "node", "id": 11580469621, "lat": -37.8232965, "lon": 144.9679961}, {"type": "node", "id": 11580469636, "lat": -37.8230947, "lon": 144.9685608}, {"type": "node", "id": 11580469637, "lat": -37.8233796, "lon": 144.968471}, {"type": "node", "id": 11580469638, "lat": -37.8234057, "lon": 144.9684644}, {"type": "node", "id": 11580469639, "lat": -37.8233106, "lon": 144.9679925}, {"type": "node", "id": 11580469640, "lat": -37.8233078, "lon": 144.9679748}, {"type": "node", "id": 11580469641, "lat": -37.8231927, "lon": 144.9680224}, {"type": "node", "id": 11580469642, "lat": -37.8233275, "lon": 144.9679698}, {"type": "node", "id": 11580469643, "lat": -37.8231396, "lon": 144.9676868}, {"type": "node", "id": 11580469644, "lat": -37.8233459, "lon": 144.9676345}, {"type": "node", "id": 11580469645, "lat": -37.8233198, "lon": 144.9680507}, {"type": "node", "id": 11580469646, "lat": -37.823237, "lon": 144.9686261}, {"type": "node", "id": 11580469659, "lat": -37.8234191, "lon": 144.9685491}, {"type": "node", "id": 11580469660, "lat": -37.8229174, "lon": 144.9684796}, {"type": "node", "id": 11580469661, "lat": -37.8234629, "lon": 144.9687744}, {"type": "node", "id": 11580469662, "lat": -37.8235064, "lon": 144.9686996}, {"type": "node", "id": 11580469663, "lat": -37.8234131, "lon": 144.9687067}, {"type": "node", "id": 11580469664, "lat": -37.8235141, "lon": 144.9686977}, {"type": "node", "id": 11580469665, "lat": -37.8233917, "lon": 144.968556}, {"type": "node", "id": 11839662324, "lat": -37.8156051, "lon": 144.9568708, "tags": {"addr:housenumber": "570", "addr:postcode": "3000", "addr:state": "VIC", "addr:street": "Bourke Street", "addr:suburb": "Melbourne", "addr:unit": "Level 9", "amenity": "library", "name": "Legal Aid public law library", "opening_hours": "Mo-Fr 09:00-17:00", "operator": "Victoria Legal Aid", "operator:type": "public"}}, {"type": "node", "id": 11844575766, "lat": -37.8198526, "lon": 144.9408091}, {"type": "node", "id": 11844575768, "lat": -37.8200271, "lon": 144.9402053}, {"type": "node", "id": 11844587969, "lat": -37.8201882, "lon": 144.9402799}, {"type": "node", "id": 12096372117, "lat": -37.7992401, "lon": 144.9628581}, {"type": "node", "id": 12096372118, "lat": -37.7992302, "lon": 144.9627646}, {"type": "node", "id": 12139119955, "lat": -37.7986236, "lon": 144.963595, "tags": {"access": "staff;students", "addr:housenumber": "11", "addr:street": "Monash Road", "air_conditioning": "yes", "amenity": "library", "books": "adults;videos;gaming;fiction;non-fiction;comics;ebooks;eaudiobooks;playstation_5;magazines;board_games;vr_headsets;puzzles", "check_date": "2024-08-27", "internet_access": "wlan", "internet_access:fee": "customers", "level": "2-3", "name": "Rowden White Library (Levels 2 & 3)", "opening_hours": "Mo-Fr 09:00-19:00", "operator": "UMSU", "operator:type": "private_non_profit", "phone": "+61 3 8344 6967", "source": "local knowledge", "website": "https://umsu.unimelb.edu.au/things-to-do/library/", "wheelchair": "yes"}}, {"type": "node", "id": 13108482020, "lat": -37.8141788, "lon": 144.9583428, "tags": {"addr:housenumber": "210", "addr:postcode": "3000", "addr:state": "VIC", "addr:street": "William Street", "addr:suburb": "Melbourne", "amenity": "library", "name": "Law Library Victoria"}}, {"type": "way", "id": 22820458, "nodes": [245537990, 609088563, 609088565, 2240626124, 2240626126, 2240626129, 2240626127, 2240626131, 2240626133, 609088568, 609088570, 609088573, 609088575, 609088577, 4120677316, 609088580, 609088583, 609088586, 609088588, 609088591, 6167266647, 609088593, 609088595, 609088597, 609088600, 609088602, 609088604, 245537989, 6696357545, 245537990], "tags": {"addr:housenumber": "328", "addr:postcode": "3000", "addr:street": "Swanston Street", "addr:suburb": "Melbourne", "amenity": "library", "building": "yes", "email": "enquiries@slv.vic.gov.au", "fax": "+61 3 9639 4737", "image": "https://upload.wikimedia.org/wikipedia/commons/thumb/c/cd/State_Library_of_Victoria_La_Trobe_Reading_room_5th_floor_view.jpg/1200px-State_Library_of_Victoria_La_Trobe_Reading_room_5th_floor_view.jpg", "internet_access": "wlan", "internet_access:fee": "no", "landmark:name": "No value", "name": "State Library Victoria", "name:el": "\u0392\u03b9\u03b2\u03bb\u03b9\u03bf\u03b8\u03ae\u03ba\u03b7 \u03c4\u03b7\u03c2 \u0392\u03b9\u03ba\u03c4\u03ce\u03c1\u03b9\u03b1\u03c2", "name:fr": "Biblioth\u00e8que d'\u00c9tat du Victoria", "name:vi": "Th\u01b0 vi\u1ec7n Bang Victoria", "name:zh": "\u7ef4\u591a\u5229\u4e9a\u5dde\u7acb\u56fe\u4e66\u9986", "opening_hours": "Mo-Su 10:00-18:00", "phone": "+61 3 8664 7000", "website": "https://www.slv.vic.gov.au", "wikidata": "Q1200052"}}, {"type": "way", "id": 22871257, "nodes": [245809009, 2682938222, 2975246296, 2463477338, 245809011, 10727218386, 10727218336, 1879233132, 1879233134, 10727218385, 10727218387, 245809012, 6544142231, 6544142230, 245809009], "tags": {"access": "permissive", "addr:housenumber": "11", "addr:street": "Professors Walk", "air_conditioning": "yes", "alt_name": "Building 177", "amenity": "library", "books": "academic", "building": "university", "check_date": "2024-03-07", "height": "15 m", "internet_access": "wlan", "internet_access:fee": "no", "internet_access:ssid": "Eduroam & Uniwireless", "name": "Baillieu Library", "opening_hours": "Mo-Th 09:00-20:00; Fr 09:00-17:00; Sa,Su 11:00-17:00", "operator": "University of Melbourne", "operator:type": "university", "ref:isil": "AU-VU", "ref:unimelb": "177", "website": "https://library.unimelb.edu.au/", "wheelchair": "yes", "wikidata": "Q4848465"}}, {"type": "way", "id": 23766613, "nodes": [257505348, 12096372117, 12096372118, 11142699769, 257505349, 10733946319, 257505350, 2975214881, 10754882398, 10733946320, 4350551011, 10754888719, 257505348], "tags": {"access": "private", "addr:housenumber": "2", "addr:street": "Porters Lane", "air_conditioning": "yes", "alt_name": "ERC", "amenity": "library", "building": "yes", "building:levels": "6", "check_date": "2024-09-05", "internet_access": "wlan", "internet_access:fee": "no", "internet_access:ssid": "Eduroam & Uniwireless", "layer": "1", "name": "Eastern Resource Centre Library (Building 171)", "opening_hours": "Mo-Th 09:00-20:00; Fr 09:00-17:00; Sa,Su 11:00-17:00", "operator": "University of Melbourne", "operator:type": "university", "ref:isil": "AU-VU", "ref:unimelb": "171", "source": "local knowledge", "website": "https://library.unimelb.edu.au/", "wheelchair": "yes"}}, {"type": "way", "id": 223544289, "nodes": [2324373113, 2324373106, 2324373105, 2324373117, 2324373103, 11414503278, 11414503282, 11414503285, 11414503276, 11414503281, 11414503280, 11414503277, 11414503284, 11414503283, 11414503279, 2324373111, 2324373114, 2324373108, 2324373116, 2324373109, 2324373113], "tags": {"addr:country": "AU", "addr:housenumber": "120-126", "addr:postcode": "3002", "addr:state": "VIC", "addr:street": "George Street", "addr:suburb": "East Melbourne", "amenity": "library", "building": "public", "name": "East Melbourne Library and Community Centre", "operator": "City of Melbourne", "source": "Vicmap Address"}}, {"type": "way", "id": 401309132, "nodes": [11844575768, 11844575766, 6684334228, 6681538750, 6680797631, 6680797708, 6680797700, 11844587969, 11844575768], "tags": {"addr:country": "AU", "addr:housenumber": "107-117", "addr:postcode": "3008", "addr:state": "VIC", "addr:street": "Victoria Harbour Promenade", "addr:suburb": "Docklands", "amenity": "library", "building": "yes", "name": "Library at the Dock", "opening_hours": "Mo-Fr 08:00-19:00; Sa 10:00-17:00; Su 12:00-17:00", "operator": "City of Melbourne", "phone": "+61 3 9658 9998", "website": "https://www.melbourne.vic.gov.au/community/libraries/locations/Pages/locations.aspx", "wikidata": "Q21481291"}}, {"type": "way", "id": 518551116, "nodes": [11580469641, 11580469621, 11580469639, 11580469640, 11580469642, 11580469638, 11580469637, 11580469645, 11580469620, 11580469619, 11580469660, 11580469636, 11580469646, 11580469663, 11580469665, 11580469659, 5058108332, 5058108349, 11580469661, 5058108334, 11580469662, 11580469664, 11580469644, 11580469614, 11580469643, 11580469641], "tags": {"amenity": "library", "building:part": "yes", "layer": "1", "name": "NGV Library", "operator": "NGV"}}]}